STARLINK-1751
1 26378C 20062BG  21325.15735736  .01223056  00000-0  39210-1 0  3256
2 26378  53.0533 176.6123 0001563  60.4790 250.7818 15.30581621    10
